CAS-2T & KS-1Q          
1 41847U 16066G   21111.77463689  .00000197  00000-0  39631-4 0  9992
2 41847  98.6069 170.6491 0365842  29.7386 332.4059 14.38177364233733
NAYIF-1 (EO-88)         
1 42017U 17008BX  21111.71988733  .00003311  00000-0  12428-3 0  9990
2 42017  97.3198 180.3338 0004643 322.8005  37.2913 15.27892934232592
ZHUHAI-1 02 (CAS-4B)    
1 42759U 17034B   21112.48502463  .00000550  00000-0  46460-4 0  9995
2 42759  43.0163 128.7654 0008484 182.1087 334.2133 15.10163494212682
ZHUHAI-1 01 (CAS-4A)    
1 42761U 17034D   21112.41121155  .00000528  00000-0  45062-4 0  9998
2 42761  43.0164 128.2641 0009131 183.0982 323.6188 15.10244459212673
MAX VALIER SAT          
1 42778U 17036P   21112.41094409  .00001893  00000-0  82222-4 0  9994
2 42778  97.2614 162.8458 0012340  23.0598 337.1191 15.23440235212751
RADFXSAT (FOX-1B)       
1 43017U 17073E   21112.26765081  .00000898  00000-0  73673-4 0  9990
2 43017  97.7106  18.4773 0256494 123.4960 239.1048 14.79441688184813
FOX-1D (AO-92)          
1 43137U 18004AC  21111.84398306  .00002334  00000-0  96113-4 0  9994
2 43137  97.4093 186.4522 0010185  57.7998 302.4226 15.25070430182030
DIWATA-2B               
1 43678U 18084H   21112.44437575  .00000571  00000-0  62488-4 0  9990
2 43678  97.9142 237.4635 0008572 231.0081 129.0392 14.91736946135082
ES'HAIL 2               
1 43700U 18090A   21111.86013483  .00000143  00000-0  00000-0 0  9999
2 43700   0.0190 246.9542 0002630 175.2460 123.3909  1.00273569  8800
FOX-1CLIFF (AO-95)      
1 43770U 18099N   21111.77056835  .00000202  00000-0  23536-4 0  9992
2 43770  97.6685 183.2009 0013139 244.6140 115.3721 14.95269570129982
ITASAT 1                
1 43786U 18099AE  21112.43700167  .00000083  00000-0  12634-4 0  9991
2 43786  97.6703 184.4919 0013886 234.8947 125.0973 14.95572107130115
JY1SAT (JO-97)          
1 43803U 18099AX  21111.67406611  .00001106  00000-0  10408-3 0  9996
2 43803  97.6663 183.5036 0013811 236.6650 123.3249 14.95804290130005
UWE-4                   
1 43880U 18111E   21112.29745487  .00001165  00000-0  10672-3 0  9990
2 43880  97.6906  20.9805 0010575 296.6459  63.3679 14.96813389124682
PSAT2 (NO-104)          
1 44354U 19036R   21112.43117667  .00017110  00000-0  22877-3 0  9990
2 44354  28.5269 140.1771 0330708  29.2922 332.5788 15.12196934100471
BRICSAT2 (NO-103)       
1 44355U 19036S   21112.30432570  .00035377  00000-0  40119-3 0  9994
2 44355  28.5230 104.5654 0275584  87.3155 275.8950 15.26580597100823
JAISAT-1                
1 44419U 19038F   21111.85369032  .00002097  00000-0  11987-3 0  9992
2 44419  97.5829  76.7900 0022064 143.6287 216.6448 15.13603836 99238
DUCHIFAT-3              
1 44854U 19089C   21112.25828795  .00001103  00000-0  94656-4 0  9994
2 44854  36.9651  72.9439 0007554  36.1326 323.9965 14.99434389 74667
RS-44 & BREEZE-KM R/B   
1 44909U 19096E   21111.78817749  .00000024  00000-0  56102-4 0  9992
2 44909  82.5199 150.4670 0216590 225.3667 132.9596 12.79709641 61579
ORBITAL FACTORY 2 (OF-2)
1 45113U 19071C   21111.85167109  .00004278  00000-0  13341-3 0  9991
2 45113  51.6420 311.8757 0012710  89.9835 270.2604 15.35365743 68477
HUSKYSAT-1 (HO-107)     
1 45119U 19071J   21111.79947236  .00003656  00000-0  11545-3 0  9990
2 45119  51.6422 311.5240 0012066  86.4482 273.7880 15.35425456 68464
BY70-2                  
1 45857U 20042B   21112.41436999  .00001768  00000-0  25865-3 0  9990
2 45857  97.9849 188.7466 0012085  43.0883 317.1281 14.76872891 43271
SALSAT                  
1 46495U 20068K   21111.88860061  .00000848  00000-0  66793-4 0  9992
2 46495  97.6897  49.7326 0015224 263.2289  96.7204 15.03422901 30832
BY70-3                  
1 46839U 20079N   21112.46723390  .00005618  00000-0  17668-3 0  9990
2 46839  97.2421 187.4391 0008674  55.8879  67.7200 15.33321869 25625
RADFXSAT-2 (AO-109)     
1 47311U 21002C   21111.77951878  .00001376  00000-0  72279-4 0  9997
2 47311  60.6842 143.3245 0027779  14.0514 346.1338 15.21465210 14249
UVSQ-SAT                
1 47438U 21006AB  21111.70619696  .00001450  00000-0  85726-4 0  9997
2 47438  97.4924 173.9341 0011243 297.3186  62.6900 15.13011829 13477
